{
  "type": "FeatureCollection",
  "features": [
    {
      "type": "Feature",
      "properties": {
        "norad_id": 44333,
        "name": "AT&T T-16",
        "group": "intelsat",
        "lat": 0.02778937556446257,
        "lon": 149.29016618078458,
        "alt_km": 35783.59636134461,
        "timestamp": "2025-12-18T10:51:25.457691+00:00",
        "meta_object_name": "AT&T T-16",
        "meta_object_id": "2019-034A",
        "meta_epoch": "2025-12-17T21:24:26.623584",
        "meta_mean_motion": 1.00269566,
        "meta_eccentricity": 7.792e-05,
        "meta_inclination": 0.0259,
        "meta_ra_of_asc_node": 66.1144,
        "meta_arg_of_pericenter": 65.1136,
        "meta_mean_anomaly": 175.7779,
        "meta_ephemeris_type": 0,
        "meta_classification_type": "U",
        "meta_norad_cat_id": 44333,
        "meta_element_set_no": 999,
        "meta_rev_at_epoch": 2381,
        "meta_bstar": 0,
        "meta_mean_motion_dot": -9e-07,
        "meta_mean_motion_ddot": 0,
        "tle_line1": "1 44333U 19034A   25351.89197481 -.00000090  00000+0  00000+0 0  9995",
        "tle_line2": "2 44333   0.0259  66.1144 0000779  65.1136 175.7779  1.00269566 23814"
      },
      "geometry": {
        "type": "Point",
        "coordinates": [
          149.29016618078458,
          0.02778937556446257
        ]
      }
    },
    {
      "type": "Feature",
      "properties": {
        "norad_id": 44476,
        "name": "INTELSAT 39 (IS-39)",
        "group": "intelsat",
        "lat": -0.032539877229432725,
        "lon": -47.91600506878183,
        "alt_km": 35791.8821095813,
        "timestamp": "2025-12-18T10:51:25.457702+00:00",
        "meta_object_name": "INTELSAT 39 (IS-39)",
        "meta_object_id": "2019-049B",
        "meta_epoch": "2025-12-17T18:45:21.347712",
        "meta_mean_motion": 1.00270128,
        "meta_eccentricity": 0.00012769,
        "meta_inclination": 0.0266,
        "meta_ra_of_asc_node": 351.4915,
        "meta_arg_of_pericenter": 141.3587,
        "meta_mean_anomaly": 297.0708,
        "meta_ephemeris_type": 0,
        "meta_classification_type": "U",
        "meta_norad_cat_id": 44476,
        "meta_element_set_no": 999,
        "meta_rev_at_epoch": 2330,
        "meta_bstar": 0,
        "meta_mean_motion_dot": 0,
        "meta_mean_motion_ddot": 0,
        "tle_line1": "1 44476U 19049B   25351.78149708  .00000000  00000+0  00000+0 0  9996",
        "tle_line2": "2 44476   0.0266 351.4915 0001276 141.3587 297.0708  1.00270128 23306"
      },
      "geometry": {
        "type": "Point",
        "coordinates": [
          -47.91600506878183,
          -0.032539877229432725
        ]
      }
    },
    {
      "type": "Feature",
      "properties": {
        "norad_id": 46114,
        "name": "GALAXY 30 (G-30)",
        "group": "intelsat",
        "lat": 0.027483131439096715,
        "lon": 125.1521797432089,
        "alt_km": 35792.58068567321,
        "timestamp": "2025-12-18T10:51:25.457715+00:00",
        "meta_object_name": "GALAXY 30 (G-30)",
        "meta_object_id": "2020-056C",
        "meta_epoch": "2025-12-17T16:09:21.285792",
        "meta_mean_motion": 1.00272596,
        "meta_eccentricity": 0.00020342,
        "meta_inclination": 0.0187,
        "meta_ra_of_asc_node": 340.7009,
        "meta_arg_of_pericenter": 286.3585,
        "meta_mean_anomaly": 296.8309,
        "meta_ephemeris_type": 0,
        "meta_classification_type": "U",
        "meta_norad_cat_id": 46114,
        "meta_element_set_no": 999,
        "meta_rev_at_epoch": 1947,
        "meta_bstar": 0,
        "meta_mean_motion_dot": 6.2e-07,
        "meta_mean_motion_ddot": 0,
        "tle_line1": "1 46114U 20056C   25351.67316303  .00000062  00000+0  00000+0 0  9990",
        "tle_line2": "2 46114   0.0187 340.7009 0002034 286.3585 296.8309  1.00272596 19473"
      },
      "geometry": {
        "type": "Point",
        "coordinates": [
          125.1521797432089,
          0.027483131439096715
        ]
      }
    },
    {
      "type": "Feature",
      "properties": {
        "norad_id": 54026,
        "name": "GALAXY 33 (G-33)",
        "group": "intelsat",
        "lat": 0.035821739792100335,
        "lon": 117.15651857284358,
        "alt_km": 35792.05752235556,
        "timestamp": "2025-12-18T10:51:25.457727+00:00",
        "meta_object_name": "GALAXY 33 (G-33)",
        "meta_object_id": "2022-128A",
        "meta_epoch": "2025-12-17T16:07:06.500928",
        "meta_mean_motion": 1.00270214,
        "meta_eccentricity": 0.00015643,
        "meta_inclination": 0.0152,
        "meta_ra_of_asc_node": 6.2977,
        "meta_arg_of_pericenter": 258.6786,
        "meta_mean_anomaly": 290.3568,
        "meta_ephemeris_type": 0,
        "meta_classification_type": "U",
        "meta_norad_cat_id": 54026,
        "meta_element_set_no": 999,
        "meta_rev_at_epoch": 1192,
        "meta_bstar": 0,
        "meta_mean_motion_dot": 1.04e-06,
        "meta_mean_motion_ddot": 0,
        "tle_line1": "1 54026U 22128A   25351.67160302  .00000104  00000+0  00000+0 0  9996",
        "tle_line2": "2 54026   0.0152   6.2977 0001564 258.6786 290.3568  1.00270214 11929"
      },
      "geometry": {
        "type": "Point",
        "coordinates": [
          117.15651857284358,
          0.035821739792100335
        ]
      }
    },
    {
      "type": "Feature",
      "properties": {
        "norad_id": 54027,
        "name": "GALAXY 34 (G-34)",
        "group": "intelsat",
        "lat": 0.03516291218539132,
        "lon": 121.23075647959541,
        "alt_km": 35790.65245598278,
        "timestamp": "2025-12-18T10:51:25.457739+00:00",
        "meta_object_name": "GALAXY 34 (G-34)",
        "meta_object_id": "2022-128B",
        "meta_epoch": "2025-12-17T16:08:13.893792",
        "meta_mean_motion": 1.00271751,
        "meta_eccentricity": 0.00014468,
        "meta_inclination": 0.0228,
        "meta_ra_of_asc_node": 346.727,
        "meta_arg_of_pericenter": 273.4823,
        "meta_mean_anomaly": 299.4768,
        "meta_ephemeris_type": 0,
        "meta_classification_type": "U",
        "meta_norad_cat_id": 54027,
        "meta_element_set_no": 999,
        "meta_rev_at_epoch": 1209,
        "meta_bstar": 0,
        "meta_mean_motion_dot": 0,
        "meta_mean_motion_ddot": 0,
        "tle_line1": "1 54027U 22128B   25351.67238303  .00000000  00000+0  00000+0 0  9999",
        "tle_line2": "2 54027   0.0228 346.7270 0001446 273.4823 299.4768  1.00271751 12096"
      },
      "geometry": {
        "type": "Point",
        "coordinates": [
          121.23075647959541,
          0.03516291218539132
        ]
      }
    },
    {
      "type": "Feature",
      "properties": {
        "norad_id": 54243,
        "name": "GALAXY 31 (G-31)",
        "group": "intelsat",
        "lat": 0.03488893939164675,
        "lon": 129.15129946673795,
        "alt_km": 35791.518325583296,
        "timestamp": "2025-12-18T10:51:25.457751+00:00",
        "meta_object_name": "GALAXY 31 (G-31)",
        "meta_object_id": "2022-153A",
        "meta_epoch": "2025-12-17T16:10:28.678656",
        "meta_mean_motion": 1.00271979,
        "meta_eccentricity": 0.00014742,
        "meta_inclination": 0.0189,
        "meta_ra_of_asc_node": 32.552,
        "meta_arg_of_pericenter": 249.3017,
        "meta_mean_anomaly": 286.3123,
        "meta_ephemeris_type": 0,
        "meta_classification_type": "U",
        "meta_norad_cat_id": 54243,
        "meta_element_set_no": 999,
        "meta_rev_at_epoch": 531,
        "meta_bstar": 0,
        "meta_mean_motion_dot": 0,
        "meta_mean_motion_ddot": 0,
        "tle_line1": "1 54243U 22153A   25351.67394304  .00000000  00000+0  00000+0 0  9991",
        "tle_line2": "2 54243   0.0189  32.5520 0001474 249.3017 286.3123  1.00271979  5317"
      },
      "geometry": {
        "type": "Point",
        "coordinates": [
          129.15129946673795,
          0.03488893939164675
        ]
      }
    },
    {
      "type": "Feature",
      "properties": {
        "norad_id": 54244,
        "name": "GALAXY 32 (G-32)",
        "group": "intelsat",
        "lat": 0.002043490530013149,
        "lon": 159.1470010461489,
        "alt_km": 35796.40125931859,
        "timestamp": "2025-12-18T10:51:25.457763+00:00",
        "meta_object_name": "GALAXY 32 (G-32)",
        "meta_object_id": "2022-153B",
        "meta_epoch": "2025-12-17T04:19:59.261664",
        "meta_mean_motion": 1.00271531,
        "meta_eccentricity": 0.000259,
        "meta_inclination": 0.0104,
        "meta_ra_of_asc_node": 339.7375,
        "meta_arg_of_pericenter": 338.8221,
        "meta_mean_anomaly": 101.4983,
        "meta_ephemeris_type": 0,
        "meta_classification_type": "U",
        "meta_norad_cat_id": 54244,
        "meta_element_set_no": 999,
        "meta_rev_at_epoch": 1131,
        "meta_bstar": 0,
        "meta_mean_motion_dot": -1.5e-06,
        "meta_mean_motion_ddot": 0,
        "tle_line1": "1 54244U 22153B   25351.18054701 -.00000150  00000+0  00000+0 0  9999",
        "tle_line2": "2 54244   0.0104 339.7375 0002590 338.8221 101.4983  1.00271531 11318"
      },
      "geometry": {
        "type": "Point",
        "coordinates": [
          159.1470010461489,
          0.002043490530013149
        ]
      }
    }
  ]
}